OBJECT_NAME,OBJECT_ID,EPOCH,MEAN_MOTION,ECCENTRICITY,INCLINATION,RA_OF_ASC_NODE,ARG_OF_PERICENTER,MEAN_ANOMALY,EPHEMERIS_TYPE,CLASSIFICATION_TYPE,NORAD_CAT_ID,ELEMENT_SET_NO,REV_AT_EPOCH,BSTAR,MEAN_MOTION_DOT,MEAN_MOTION_DDOT
STARLINK-30136,2023-079X,2026-03-09T12:00:01.999296,15.18906072,.000211,43.0009,107.7538,272.4679,39.2148,0,U,56844,999,576,.56579E-2,.122112E-2,0
CONNECTA IOT-10,2025-135AD,2026-03-09T07:35:31.513344,15.20507930,.000069,97.4557,184.3751,59.0746,301.0557,0,U,64555,999,3968,.24786E-3,.5349E-4,0
